[{"OBJECT_NAME":"STARLINK-11588 [DTC]","OBJECT_ID":"2025-057N","EPOCH":"2026-03-09T21:52:29.118432","MEAN_MOTION":15.70893396,"ECCENTRICITY":0.00010565,"INCLINATION":43.0003,"RA_OF_ASC_NODE":263.0869,"ARG_OF_PERICENTER":294.7662,"MEAN_ANOMALY":65.3095,"EPHEMERIS_TYPE":0,"CLASSIFICATION_TYPE":"U","NORAD_CAT_ID":63319,"ELEMENT_SET_NO":999,"REV_AT_EPOCH":5721,"BSTAR":0.0023805764,"MEAN_MOTION_DOT":0.00317697,"MEAN_MOTION_DDOT":0},{"OBJECT_NAME":"FLOCK 4BE-10","OBJECT_ID":"2024-149AM","EPOCH":"2026-03-09T23:11:04.477920","MEAN_MOTION":15.73804605,"ECCENTRICITY":0.00059918,"INCLINATION":97.3736,"RA_OF_ASC_NODE":155.157,"ARG_OF_PERICENTER":229.3829,"MEAN_ANOMALY":130.6914,"EPHEMERIS_TYPE":0,"CLASSIFICATION_TYPE":"U","NORAD_CAT_ID":60503,"ELEMENT_SET_NO":999,"REV_AT_EPOCH":8723,"BSTAR":0.0018232079,"MEAN_MOTION_DOT":0.00264399,"MEAN_MOTION_DDOT":0}]
